[{"OBJECT_NAME":"STARLINK-35997","OBJECT_ID":"2025-280Y","EPOCH":"2026-03-09T22:21:26.676864","MEAN_MOTION":14.98330654,"ECCENTRICITY":0.00019646,"INCLINATION":70.0036,"RA_OF_ASC_NODE":333.7811,"ARG_OF_PERICENTER":266.2728,"MEAN_ANOMALY":93.8207,"EPHEMERIS_TYPE":0,"CLASSIFICATION_TYPE":"U","NORAD_CAT_ID":66843,"ELEMENT_SET_NO":999,"REV_AT_EPOCH":1611,"BSTAR":0.00074923265,"MEAN_MOTION_DOT":8.858e-5,"MEAN_MOTION_DDOT":0},{"OBJECT_NAME":"METHANESAT","OBJECT_ID":"2024-043D","EPOCH":"2026-03-09T22:12:33.121440","MEAN_MOTION":14.97588653,"ECCENTRICITY":0.00100526,"INCLINATION":97.8288,"RA_OF_ASC_NODE":199.6058,"ARG_OF_PERICENTER":350.2517,"MEAN_ANOMALY":9.8508,"EPHEMERIS_TYPE":0,"CLASSIFICATION_TYPE":"U","NORAD_CAT_ID":59101,"ELEMENT_SET_NO":999,"REV_AT_EPOCH":10979,"BSTAR":0.00032562202,"MEAN_MOTION_DOT":3.748e-5,"MEAN_MOTION_DDOT":0}]
